NORAD_CAT_ID,OBJECT_NAME,OBJECT_TYPE,EPOCH,MEAN_MOTION,ECCENTRICITY,INCLINATION,RA_OF_ASC_NODE,ARG_OF_PERICENTER,MEAN_ANOMALY,BSTAR,MEAN_MOTION_DOT,MEAN_MOTION_DDOT,TLE_LINE0,TLE_LINE1,TLE_LINE2,SEMIMAJOR_AXIS,PERIOD,APOGEE,PERIGEE,DECAYED
52858.0,STARLINK-4198,PAYLOAD,2024-06-22 12:26:25,15.08843704,0.000123,53.2179,310.6525,78.7303,281.3828,5.797e-05,6.35e-06,0.0,0 STARLINK-4198,1 52858U 22062AE  24174.51835638  .00000635  00000-0  57970-4 0  9993,2 52858  53.2179 310.6525 0001230  78.7303 281.3828 15.08843704112032,6917.869,95.437,540.585,538.883,0.0
52858.0,STARLINK-4198,PAYLOAD,2024-06-22 14:01:48,15.08845153,0.0001249,53.2182,310.3544,88.3594,271.7541,6.6013e-05,7.63e-06,0.0,0 STARLINK-4198,1 52858U 22062AE  24174.58459477  .00000763  00000-0  66013-4 0  9993,2 52858  53.2182 310.3544 0001249  88.3594 271.7541 15.08845153111554,6917.865,95.437,540.594,538.866,0.0
52858.0,STARLINK-4198,PAYLOAD,2024-06-22 18:47:57,15.08852711,0.000115,53.2177,309.4618,80.6332,279.479,6.2944e-05,7.14e-06,0.0,0 STARLINK-4198,1 52858U 22062AE  24174.78330980  .00000714  00000-0  62944-4 0  9997,2 52858  53.2177 309.4618 0001150  80.6332 279.4790 15.08852711112072,6917.842,95.437,540.502,538.911,0.0
52858.0,STARLINK-4198,PAYLOAD,2024-06-23 12:17:13,15.08838096,0.0001267,53.2175,306.189,93.5432,266.5705,7.9762e-05,9.82e-06,0.0,0 STARLINK-4198,1 52858U 22062AE  24175.51195909  .00000982  00000-0  79762-4 0  9992,2 52858  53.2175 306.1890 0001267  93.5432 266.5705 15.08838096112184,6917.886,95.438,540.628,538.875,0.0
52858.0,STARLINK-4198,PAYLOAD,2024-06-23 13:52:36,15.08838241,0.0001277,53.2178,305.8915,99.2163,260.8973,7.4357e-05,8.96e-06,0.0,0 STARLINK-4198,1 52858U 22062AE  24175.57819875  .00000896  00000-0  74357-4 0  9992,2 52858  53.2178 305.8915 0001277  99.2163 260.8973 15.08838241111709,6917.886,95.438,540.634,538.867,0.0
52858.0,STARLINK-4198,PAYLOAD,2024-06-23 18:38:45,15.08840756,0.000131,53.2178,304.999,103.8702,256.2436,8.6503e-05,1.089e-05,0.0,0 STARLINK-4198,1 52858U 22062AE  24175.77691662  .00001089  00000-0  86503-4 0  9997,2 52858  53.2178 304.9990 0001310 103.8702 256.2436 15.08840756111731,6917.878,95.438,540.649,538.837,0.0
52858.0,STARLINK-4198,PAYLOAD,2024-06-24 12:07:59,15.08847559,0.0001309,53.2174,301.7274,103.116,256.9979,0.00013462,1.856e-05,0.0,0 STARLINK-4198,1 52858U 22062AE  24176.50555053  .00001856  00000-0  13462-3 0  9997,2 52858  53.2174 301.7274 0001309 103.1160 256.9979 15.08847559112330,6917.857,95.437,540.628,538.817,0.0
52858.0,STARLINK-4198,PAYLOAD,2024-06-24 13:43:23,15.0881347,0.0001428,53.2189,301.4297,110.3586,249.756,0.00070597,0.00010957,0.0,0 STARLINK-4198,1 52858U 22062AE  24176.57180414  .00010957  00000-0  70597-3 0  9993,2 52858  53.2189 301.4297 0001428 110.3586 249.7560 15.08813470111859,6917.961,95.439,540.814,538.839,0.0
52858.0,STARLINK-4198,PAYLOAD,2024-06-25 11:58:47,15.08839586,0.00013,53.2183,297.2676,100.1251,259.9888,7.7195e-05,9.41e-06,0.0,0 STARLINK-4198,1 52858U 22062AE  24177.49915805  .00000941  00000-0  77195-4 0  9999,2 52858  53.2183 297.2676 0001300 100.1251 259.9888 15.08839586112483,6917.882,95.438,540.646,538.847,0.0
52858.0,STARLINK-4198,PAYLOAD,2024-06-25 13:34:10,15.08840286,0.0001339,53.2177,296.9703,99.0761,261.0383,4.0582e-05,3.58e-06,0.0,0 STARLINK-4198,1 52858U 22062AE  24177.56539561  .00000358  00000-0  40582-4 0  9990,2 52858  53.2177 296.9703 0001339  99.0761 261.0383 15.08840286112008,6917.88,95.438,540.671,538.818,0.0
52858.0,STARLINK-4198,PAYLOAD,2024-06-25 16:44:56,15.08842873,0.0001424,53.2182,296.376,103.5777,256.5374,8.466e-05,1.06e-05,0.0,0 STARLINK-4198,1 52858U 22062AE  24177.69787422  .00001060  00000-0  84660-4 0  9991,2 52858  53.2182 296.3760 0001424 103.5777 256.5374 15.08842873112029,6917.872,95.437,540.722,538.752,0.0
52858.0,STARLINK-4198,PAYLOAD,2024-06-26 11:49:33,15.0884521,0.0001421,53.2183,292.8069,107.8101,252.3047,2.4885e-05,1.08e-06,0.0,0 STARLINK-4198,1 52858U 22062AE  24178.49275193  .00000108  00000-0  24885-4 0  9992,2 52858  53.2183 292.8069 0001421 107.8101 252.3047 15.08845210112140,6917.864,95.437,540.712,538.746,0.0
52858.0,STARLINK-4198,PAYLOAD,2024-06-27 13:15:44,15.08836404,0.0001291,53.2175,288.053,86.1075,274.0064,-7.178e-06,-4.02e-06,0.0,0 STARLINK-4198,1 52858U 22062AE  24179.55260056 -.00000402  00000-0 -71780-5 0  9998,2 52858  53.2175 288.0530 0001291  86.1075 274.0064 15.08836404112791,6917.891,95.438,540.649,538.863,0.0
52858.0,STARLINK-4198,PAYLOAD,2024-06-27 14:51:08,15.08827547,0.0001497,53.2181,287.7544,80.832,279.2842,0.00026502,3.931e-05,0.0,0 STARLINK-4198,1 52858U 22062AE  24179.61884568  .00003931  00000-0  26502-3 0  9993,2 52858  53.2181 287.7544 0001497  80.8320 279.2842 15.08827547112318,6917.918,95.438,540.819,538.748,0.0
52858.0,STARLINK-4198,PAYLOAD,2024-06-28 13:06:30,15.08851799,0.0001737,53.2182,283.5901,101.7088,258.4099,0.00024591,3.629e-05,0.0,0 STARLINK-4198,1 52858U 22062AE  24180.54618937  .00003629  00000-0  24591-3 0  9992,2 52858  53.2182 283.5901 0001737 101.7088 258.4099 15.08851799112949,6917.844,95.437,540.911,538.508,0.0
52858.0,STARLINK-4198,PAYLOAD,2024-06-28 14:41:53,15.08857665,0.0001355,53.2169,283.2941,96.5271,263.5875,0.00029766,4.455e-05,0.0,0 STARLINK-4198,1 52858U 22062AE  24180.61242404  .00004455  00000-0  29766-3 0  9999,2 52858  53.2169 283.2941 0001355  96.5271 263.5875 15.08857665112460,6917.826,95.436,540.629,538.754,0.0
52858.0,STARLINK-4198,PAYLOAD,2024-06-29 00:14:13,15.08849079,0.0001543,53.2155,281.5116,79.3376,280.779,0.00021848,3.192e-05,0.0,0 STARLINK-4198,1 52858U 22062AE  24181.00987543  .00003192  00000-0  21848-3 0  9993,2 52858  53.2155 281.5116 0001543  79.3376 280.7790 15.08849079113013,6917.853,95.437,540.785,538.65,0.0
52858.0,STARLINK-4198,PAYLOAD,2024-06-29 12:57:18,15.08847986,0.0001357,53.2159,279.1305,88.2521,271.8627,0.00016338,2.314e-05,0.0,0 STARLINK-4198,1 52858U 22062AE  24181.53979349  .00002314  00000-0  16338-3 0  9999,2 52858  53.2159 279.1305 0001357  88.2521 271.8627 15.08847986112603,6917.856,95.437,540.66,538.782,0.0
52858.0,STARLINK-4198,PAYLOAD,2024-06-29 14:32:41,15.08850526,0.0001437,53.2166,278.832,91.463,268.6527,0.00019551,2.826e-05,0.0,0 STARLINK-4198,1 52858U 22062AE  24181.60603190  .00002826  00000-0  19551-3 0  9993,2 52858  53.2166 278.8320 0001437  91.4630 268.6527 15.08850526112618,6917.848,95.437,540.707,538.719,0.0
52858.0,STARLINK-4198,PAYLOAD,2024-06-30 00:05:00,15.08843101,0.0001504,53.2174,277.0493,85.6463,274.4701,6.9333e-05,8.16e-06,0.0,0 STARLINK-4198,1 52858U 22062AE  24182.00347495  .00000816  00000-0  69333-4 0  9992,2 52858  53.2174 277.0493 0001504  85.6463 274.4701 15.08843101113164,6917.871,95.437,540.776,538.695,0.0
52858.0,STARLINK-4198,PAYLOAD,2024-06-30 12:48:05,15.08837287,0.0001588,53.2177,274.6691,109.373,250.7434,-0.00016485,-2.91e-05,0.0,0 STARLINK-4198,1 52858U 22062AE  24182.53339852 -.00002910  00000-0 -16485-3 0  9996,2 52858  53.2177 274.6691 0001588 109.3730 250.7434 15.08837287112755,6917.889,95.438,540.852,538.655,0.0
52858.0,STARLINK-4198,PAYLOAD,2024-06-30 15:58:51,15.08838111,0.0001611,53.2158,274.0749,100.043,260.0744,-0.00017119,-3.011e-05,0.0,0 STARLINK-4198,1 52858U 22062AE  24182.66587879 -.00003011  00000-0 -17119-3 0  9992,2 52858  53.2158 274.0749 0001611 100.0430 260.0744 15.08838111113266,6917.886,95.438,540.866,538.637,0.0
52858.0,STARLINK-4198,PAYLOAD,2024-07-01 12:38:52,15.0884073,0.000139,53.2168,270.2079,85.3029,274.8122,2.9851e-05,1.87e-06,0.0,0 STARLINK-4198,1 52858U 22062AE  24183.52700034  .00000187  00000-0  29851-4 0  9994,2 52858  53.2168 270.2079 0001390  85.3029 274.8122 15.08840730112907,6917.878,95.438,540.705,538.782,0.0
52858.0,STARLINK-4198,PAYLOAD,2024-07-01 15:49:39,15.08841745,0.0001397,53.2168,269.6127,86.6188,273.4963,6.1644e-05,6.93e-06,0.0,0 STARLINK-4198,1 52858U 22062AE  24183.65948004  .00000693  00000-0  61644-4 0  9997,2 52858  53.2168 269.6127 0001397  86.6188 273.4963 15.08841745113412,6917.875,95.437,540.706,538.774,0.0
52858.0,STARLINK-4198,PAYLOAD,2024-07-02 12:29:40,15.08838797,0.0001235,53.2164,265.7455,106.3171,253.7957,0.00011789,1.589e-05,0.0,0 STARLINK-4198,1 52858U 22062AE  24184.52060248  .00001589  00000-0  11789-3 0  9998,2 52858  53.2164 265.7455 0001235 106.3171 253.7957 15.08838797113059,6917.884,95.438,540.603,538.895,0.0
52858.0,STARLINK-4198,PAYLOAD,2024-07-03 04:23:32,15.08832041,0.0001389,53.2164,262.7754,119.6633,240.4497,8.5546e-05,1.074e-05,0.0,0 STARLINK-4198,1 52858U 22062AE  24185.18301062  .00001074  00000-0  85546-4 0  9995,2 52858  53.2164 262.7754 0001389 119.6633 240.4497 15.08832041113641,6917.905,95.438,540.731,538.809,0.0
52858.0,STARLINK-4198,PAYLOAD,2024-07-03 21:52:46,15.08840191,0.0001114,53.2153,259.5053,90.1353,269.9767,2.5109e-05,1.12e-06,0.0,0 STARLINK-4198,1 52858U 22062AE  24185.91164848  .00000112  00000-0  25109-4 0  9996,2 52858  53.2153 259.5053 0001114  90.1353 269.9767 15.08840191113262,6917.88,95.438,540.515,538.974,0.0
52858.0,STARLINK-4198,PAYLOAD,2024-07-04 13:46:37,15.08845638,0.0001296,53.217,256.5333,94.9383,265.1757,0.00011949,1.615e-05,0.0,0 STARLINK-4198,1 52858U 22062AE  24186.57404522  .00001615  00000-0  11949-3 0  9990,2 52858  53.2170 256.5333 0001296  94.9383 265.1757 15.08845638113364,6917.863,95.437,540.625,538.832,0.0
52858.0,STARLINK-4198,PAYLOAD,2024-07-04 21:43:33,15.08841471,0.0001417,53.2178,255.0441,96.6565,263.4588,0.00013971,1.936e-05,0.0,0 STARLINK-4198,1 52858U 22062AE  24186.90524749  .00001936  00000-0  13971-3 0  9994,2 52858  53.2178 255.0441 0001417  96.6565 263.4588 15.08841471113412,6917.876,95.437,540.721,538.761,0.0
52858.0,STARLINK-4198,PAYLOAD,2024-07-05 12:02:01,15.08843154,0.0001606,53.2183,252.3676,93.9964,266.1212,0.00010928,1.452e-05,0.0,0 STARLINK-4198,1 52858U 22062AE  24187.50140764  .00001452  00000-0  10928-3 0  9994,2 52858  53.2183 252.3676 0001606  93.9964 266.1212 15.08843154113998,6917.871,95.437,540.847,538.625,0.0
